ONEWEB-0176             
1 48210U 21031A   25008.80357141  .00000052  00000+0  10607-3 0  9999
2 48210  87.8989  33.9691 0001772  94.2421 265.8911 13.14503168179423
ONEWEB-0184             
1 48211U 21031B   25008.77660220 -.00000122  00000+0 -36257-3 0  9990
2 48211  87.8986  33.9504 0001680 124.8086 235.3202 13.14505170179395
ONEWEB-0179             
1 48212U 21031C   25008.59424824  .00000258  00000+0  66140-3 0  9991
2 48212  87.8988  33.9977 0001878  93.6943 266.4402 13.14502854179412
ONEWEB-0180             
1 48213U 21031D   25009.08425092 -.00000130  00000+0 -38574-3 0  9996
2 48213  87.8985  33.8923 0001920 100.4302 259.7044 13.14504469179369
ONEWEB-0218             
1 48214U 21031E   25009.10644176 -.00000337  00000+0 -94429-3 0  9996
2 48214  87.8985  33.8893 0002050 123.6699 236.4626 13.14503549179521
ONEWEB-0209             
1 48215U 21031F   25008.79087061 -.00000172  00000+0 -49778-3 0  9999
2 48215  87.8989  33.9912 0002032  94.4593 265.6769 13.14500526179486
ONEWEB-0198             
1 48216U 21031G   25008.77502345 -.00000085  00000+0 -26282-3 0  9993
2 48216  87.8987  33.9973 0001970 104.4429 255.6920 13.14502924179596
ONEWEB-0189             
1 48217U 21031H   25009.09218232 -.00000159  00000+0 -46392-3 0  9995
2 48217  87.8988  33.9089 0002120 105.3962 254.7402 13.14502033179378
